OBJECT_NAME,OBJECT_ID,EPOCH,MEAN_MOTION,ECCENTRICITY,INCLINATION,RA_OF_ASC_NODE,ARG_OF_PERICENTER,MEAN_ANOMALY,EPHEMERIS_TYPE,CLASSIFICATION_TYPE,NORAD_CAT_ID,ELEMENT_SET_NO,REV_AT_EPOCH,BSTAR,MEAN_MOTION_DOT,MEAN_MOTION_DDOT
STARLINK-37572,2026-127F,2026-06-30T13:16:31.029024,15.75269381,.0001543,53.1588,195.8312,83.8562,276.2634,0,U,69448,999,351,.65584E-3,.101238E-2,0
STARLINK-37643,2026-127G,2026-06-30T11:51:41.493600,15.75264983,.000138,53.1590,196.1763,82.4683,277.6494,0,U,69449,999,350,.69293E-3,.107054E-2,0
STARLINK-37601,2026-127H,2026-06-30T11:51:13.281408,15.75286276,.0001889,53.1590,196.1732,92.7530,267.3706,0,U,69450,999,350,.11254241E-2,.175873E-2,0
STARLINK-37578,2026-127J,2026-06-30T13:02:58.209792,15.75287350,.0001353,53.1568,195.7672,92.4581,267.6594,0,U,69451,999,351,.82284E-3,.127682E-2,0
STARLINK-37577,2026-127K,2026-06-30T12:43:21.722592,15.75296747,.0001196,53.1587,195.6766,100.0330,260.0826,0,U,69452,999,351,.11229E-2,.175543E-2,0
STARLINK-37500,2026-127L,2026-06-30T15:59:37.742784,15.75310949,.0000796,53.1566,195.1098,117.5913,242.5188,0,U,69453,999,353,.12079E-2,.189311E-2,0
STARLINK-37575,2026-127M,2026-06-30T15:40:00.917760,15.75337715,.0001471,53.1589,195.0181,186.6244,173.4757,0,U,69454,999,353,.16127E-2,.255274E-2,0
STARLINK-37642,2026-127N,2026-06-30T14:34:48.310176,15.75286167,.0001248,53.1562,195.4525,88.6925,271.4238,0,U,69455,999,352,.89928E-3,.139797E-2,0
STARLINK-37513,2026-127P,2026-06-30T15:04:37.189344,15.80906691,.0001695,53.1561,194.8524,48.0736,312.0431,0,U,69456,999,353,.47513E-3,.94255E-3,0
STARLINK-37563,2026-127Q,2026-06-30T15:46:33.616992,15.75280830,.0001023,53.1587,195.0478,127.5545,232.5569,0,U,69457,999,353,.10431E-2,.162658E-2,0
STARLINK-37565,2026-127R,2026-06-30T15:33:00.948096,15.75286031,.0000671,53.1583,194.9848,87.1856,272.9241,0,U,69458,999,353,.10573E-2,.164976E-2,0
STARLINK-37498,2026-127S,2026-06-30T15:59:09.609216,15.75279196,.0001304,53.1561,195.1051,71.0133,289.1029,0,U,69459,999,353,.78863E-3,.122224E-2,0
STARLINK-37384,2026-127T,2026-06-30T12:36:49.216032,15.75293507,.0001184,53.1586,195.6449,139.4668,220.6441,0,U,69460,999,351,.84252E-3,.130835E-2,0
STARLINK-37707,2026-127U,2026-06-30T12:30:45.853920,15.75316884,.0001071,53.1584,195.6158,90.7407,269.3736,0,U,69461,999,351,.14142E-2,.222698E-2,0
STARLINK-37525,2026-127V,2026-06-30T12:23:45.307104,15.75261430,.0001165,53.1577,195.5822,106.3725,253.7423,0,U,69462,999,351,.60754E-3,.93617E-3,0
STARLINK-37526,2026-127W,2026-06-30T15:20:25.234080,15.75254569,.0001616,53.1574,194.9245,61.2877,298.8306,0,U,69463,999,353,.56941E-3,.87614E-3,0
STARLINK-37574,2026-127X,2026-06-30T15:26:57.501312,15.75273507,.0002153,53.1578,194.9532,48.7350,311.3855,0,U,69464,999,353,.91778E-3,.142663E-2,0
STARLINK-37535,2026-127Y,2026-06-30T15:19:56.582112,15.75308405,.0000687,53.1569,194.9212,97.8596,262.2502,0,U,69465,999,353,.13978E-2,.219951E-2,0
STARLINK-37583,2026-127Z,2026-06-30T20:00:01.999008,15.75158014,.0001455,53.1581,193.6400,102.0120,74.4378,0,U,69466,999,484,.82944E-3,.127989E-2,0
STARLINK-37546,2026-127AA,2026-06-30T06:05:42.410112,15.75288647,.0001378,53.1564,196.7822,132.6701,227.4436,0,U,69467,999,347,.13144209E-2,.206281E-2,0
STARLINK-37532,2026-127AB,2026-06-30T14:25:23.445120,15.80941882,.0001355,53.1563,194.6647,84.2397,275.8781,0,U,69468,999,353,.78081E-3,.156733E-2,0
STARLINK-37708,2026-127AC,2026-06-30T15:13:24.479040,15.75281309,.0001354,53.1563,194.8869,53.8093,306.3053,0,U,69469,999,353,.79021E-3,.122486E-2,0
STARLINK-37686,2026-127AD,2026-06-30T12:04:37.108128,15.75292977,.0001345,53.1575,195.4897,126.3413,233.7731,0,U,69470,999,351,.10952E-2,.171086E-2,0
STARLINK-37451,2026-127AE,2026-06-30T15:48:39.816288,15.80911026,.0002111,53.1562,194.3176,38.3648,321.7525,0,U,69471,999,354,.53525E-3,.106446E-2,0
DTC TEST OBJECT A,2026-128A,2026-06-30T14:13:18.353856,15.56466739,.0010283,54.9920,243.0721,335.1800,24.8740,0,U,69472,999,331,.32804E-3,.23228E-3,0
DTC TEST OBJECT B,2026-128B,2026-06-27T09:02:13.824960,15.56860342,.0009934,55.0021,257.9040,325.3113,34.7274,0,U,69473,999,280,.3356545E-3,.24134E-3,0
TJS-25,2026-129A,2026-06-29T20:51:45.669312,1.00272023,.00022326,5.9710,330.2743,293.5561,87.3179,0,U,69474,999,19,0,-.355E-5,0
STARLINK-37816,2026-131A,2026-06-30T17:38:24.607392,15.80929449,.0001136,97.2838,202.7985,23.4749,336.6571,0,U,69478,999,430,.1172E-2,.231614E-2,0
STARLINK-37878,2026-131B,2026-06-30T05:37:15.801888,15.80896732,.00003368,97.2841,202.2547,61.8744,298.2558,0,U,69479,999,422,.99328298E-3,.195156E-2,0
STARLINK-37817,2026-131C,2026-06-29T18:48:56.961504,15.80871643,.00010928,97.2831,201.7958,91.1658,268.9735,0,U,69480,999,415,.12491096E-2,.246636E-2,0
