STARLINK-37572          
1 69448U 26127F   26181.55313691  .00101238  00000+0  65584-3 0  9995
2 69448  53.1588 195.8312 0001543  83.8562 276.2634 15.75269381  3513
STARLINK-37643          
1 69449U 26127G   26181.49423025  .00107054  00000+0  69293-3 0  9995
2 69449  53.1590 196.1763 0001380  82.4683 277.6494 15.75264983  3500
STARLINK-37601          
1 69450U 26127H   26181.49390372  .00175873  00000+0  11254-2 0  9992
2 69450  53.1590 196.1732 0001889  92.7530 267.3706 15.75286276  3508
STARLINK-37578          
1 69451U 26127J   26181.54372928  .00127682  00000+0  82284-3 0  9993
2 69451  53.1568 195.7672 0001353  92.4581 267.6594 15.75287350  3514
STARLINK-37577          
1 69452U 26127K   26181.53011253  .00175543  00000+0  11229-2 0  9993
2 69452  53.1587 195.6766 0001196 100.0330 260.0826 15.75296747  3517
STARLINK-37500          
1 69453U 26127L   26181.66640906  .00189311  00000+0  12079-2 0  9993
2 69453  53.1566 195.1098 0000796 117.5913 242.5188 15.75310949  3532
STARLINK-37575          
1 69454U 26127M   26181.65278840  .00255274  00000+0  16127-2 0  9997
2 69454  53.1589 195.0181 0001471 186.6244 173.4757 15.75337715  3539
STARLINK-37642          
1 69455U 26127N   26181.60750359  .00139797  00000+0  89928-3 0  9994
2 69455  53.1562 195.4525 0001248  88.6925 271.4238 15.75286167  3522
STARLINK-37513          
1 69456U 26127P   26181.62820821  .00094255  00000+0  47513-3 0  9992
2 69456  53.1561 194.8524 0001695  48.0736 312.0431 15.80906691  3535
STARLINK-37563          
1 69457U 26127Q   26181.65733353  .00162658  00000+0  10431-2 0  9990
2 69457  53.1587 195.0478 0001023 127.5545 232.5569 15.75280830  3533
STARLINK-37565          
1 69458U 26127R   26181.64792764  .00164976  00000+0  10573-2 0  9993
2 69458  53.1583 194.9848 0000671  87.1856 272.9241 15.75286031  3537
STARLINK-37498          
1 69459U 26127S   26181.66608344  .00122224  00000+0  78863-3 0  9993
2 69459  53.1561 195.1051 0001304  71.0133 289.1029 15.75279196  3535
STARLINK-37384          
1 69460U 26127T   26181.52556963  .00130835  00000+0  84252-3 0  9995
2 69460  53.1586 195.6449 0001184 139.4668 220.6441 15.75293507  3516
STARLINK-37707          
1 69461U 26127U   26181.52136405  .00222698  00000+0  14142-2 0  9990
2 69461  53.1584 195.6158 0001071  90.7407 269.3736 15.75316884  3518
STARLINK-37525          
1 69462U 26127V   26181.51649661  .00093617  00000+0  60754-3 0  9991
2 69462  53.1577 195.5822 0001165 106.3725 253.7423 15.75261430  3515
STARLINK-37526          
1 69463U 26127W   26181.63918095  .00087614  00000+0  56941-3 0  9998
2 69463  53.1574 194.9245 0001616  61.2877 298.8306 15.75254569  3530
STARLINK-37574          
1 69464U 26127X   26181.64372108  .00142663  00000+0  91778-3 0  9992
2 69464  53.1578 194.9532 0002153  48.7350 311.3855 15.75273507  3530
STARLINK-37535          
1 69465U 26127Y   26181.63884933  .00219951  00000+0  13978-2 0  9996
2 69465  53.1569 194.9212 0000687  97.8596 262.2502 15.75308405  3532
STARLINK-37583          
1 69466U 26127Z   26181.83335647  .00127989  00000+0  82944-3 0  9991
2 69466  53.1581 193.6400 0001455 102.0120  74.4378 15.75158014  4846
STARLINK-37546          
1 69467U 26127AA  26181.25396308  .00206281  00000+0  13144-2 0  9997
2 69467  53.1564 196.7822 0001378 132.6701 227.4436 15.75288647  3477
STARLINK-37532          
1 69468U 26127AB  26181.60096580  .00156733  00000+0  78081-3 0  9994
2 69468  53.1563 194.6647 0001355  84.2397 275.8781 15.80941882  3537
STARLINK-37708          
1 69469U 26127AC  26181.63431110  .00122486  00000+0  79021-3 0  9993
2 69469  53.1563 194.8869 0001354  53.8093 306.3053 15.75281309  3537
STARLINK-37686          
1 69470U 26127AD  26181.50320727  .00171086  00000+0  10952-2 0  9999
2 69470  53.1575 195.4897 0001345 126.3413 233.7731 15.75292977  3519
STARLINK-37451          
1 69471U 26127AE  26181.65879417  .00106446  00000+0  53525-3 0  9993
2 69471  53.1562 194.3176 0002111  38.3648 321.7525 15.80911026  3549
DTC TEST OBJECT A       
1 69472U 26128A   26181.59257354  .00023228  00000+0  32804-3 0  9991
2 69472  54.9920 243.0721 0010283 335.1800  24.8740 15.56466739  3316
DTC TEST OBJECT B       
1 69473U 26128B   26178.37654890  .00024134  00000+0  33565-3 0  9992
2 69473  55.0021 257.9040 0009934 325.3113  34.7274 15.56860342  2801
TJS-25                  
1 69474U 26129A   26180.86927858 -.00000355  00000+0  00000+0 0  9992
2 69474   5.9710 330.2743 0002232 293.5561  87.3179  1.00272023   198
STARLINK-37816          
1 69478U 26131A   26181.73500703  .00231614  00000+0  11720-2 0  9999
2 69478  97.2838 202.7985 0001136  23.4749 336.6571 15.80929449  4305
STARLINK-37878          
1 69479U 26131B   26181.23421067  .00195156  00000+0  99328-3 0  9991
2 69479  97.2841 202.2547 0000336  61.8744 298.2558 15.80896732  4228
STARLINK-37817          
1 69480U 26131C   26180.78399261  .00246636  00000+0  12491-2 0  9997
2 69480  97.2831 201.7958 0001092  91.1658 268.9735 15.80871643  4156
